{
    "links": {
        "self": "http://www.neowsapp.com/rest/v1/neo/54054513?api_key=iIulBulltgU6a56xZRHN4H3l9WmuAYTsLGpBGhQ2"
    },
    "id": "54054513",
    "neo_reference_id": "54054513",
    "name": "(2020 SZ1)",
    "designation": "2020 SZ1",
    "nasa_jpl_url": "http://ssd.jpl.nasa.gov/sbdb.cgi?sstr=54054513",
    "absolute_magnitude_h": 25.65,
    "estimated_diameter": {
        "kilometers": {
            "estimated_diameter_min": 0.0197040262,
            "estimated_diameter_max": 0.044059542
        },
        "meters": {
            "estimated_diameter_min": 19.7040262138,
            "estimated_diameter_max": 44.0595420444
        },
        "miles": {
            "estimated_diameter_min": 0.0122435105,
            "estimated_diameter_max": 0.0273773217
        },
        "feet": {
            "estimated_diameter_min": 64.6457573632,
            "estimated_diameter_max": 144.5523079211
        }
    },
    "is_potentially_hazardous_asteroid": false,
    "close_approach_data": [
        {
            "close_approach_date": "2020-09-10",
            "close_approach_date_full": "2020-Sep-10 13:56",
            "epoch_date_close_approach": 1599746160000,
            "relative_velocity": {
                "kilometers_per_second": "8.1322275912",
                "kilometers_per_hour": "29276.0193284758",
                "miles_per_hour": "18190.9798988521"
            },
            "miss_distance": {
                "astronomical": "0.0437117774",
                "lunar": "17.0038814086",
                "kilometers": "6539188.792954138",
                "miles": "4063263.4999095844"
            },
            "orbiting_body": "Earth"
        }
    ],
    "orbital_data": {
        "orbit_id": "2",
        "orbit_determination_date": "2020-09-25 06:32:17",
        "first_observation_date": "2020-09-18",
        "last_observation_date": "2020-09-25",
        "data_arc_in_days": 7,
        "observations_used": 41,
        "orbit_uncertainty": "8",
        "minimum_orbit_intersection": ".0433172",
        "jupiter_tisserand_invariant": "3.402",
        "epoch_osculation": "2459112.5",
        "eccentricity": ".5485082091203297",
        "semi_major_axis": "2.258533593974044",
        "inclination": "4.48930438543686",
        "ascending_node_longitude": "193.352825995812",
        "orbital_period": "1239.76182400874",
        "perihelion_distance": "1.019709377105239",
        "perihelion_argument": "138.6521473977724",
        "aphelion_distance": "3.497357810842848",
        "perihelion_time": "2459089.735430066828",
        "mean_anomaly": "6.61033838696758",
        "mean_motion": ".290378355768327",
        "equinox": "J2000",
        "orbit_class": {
            "orbit_class_type": "AMO",
            "orbit_class_description": "Near-Earth asteroid orbits similar to that of 1221 Amor",
            "orbit_class_range": "1.017 AU < q (perihelion) < 1.3 AU"
        }
    },
    "is_sentry_object": false
}